CELTEE 1                
1 41850U 16067C   18079.78215662  .00000822  00000-0  77132-4 0  9996
2 41850  97.9257 166.8315 0010426  99.0151 261.2250 14.96762710 73873
OPTICUBE 04             
1 41851U 16067D   18080.20724318 -.00000111  00000-0 -44300-5 0  9994
2 41851  97.9257 167.2004 0010426  96.5736 263.6672 14.96637828 73937
AEROCUBE 8D             
1 41852U 16067E   18079.76504109  .00000309  00000-0  32564-4 0  9993
2 41852  97.9262 166.6067 0010985  99.5833 260.6629 14.96432210 73855
AEROCUBE 8C             
1 41853U 16067F   18079.77708979  .00000722  00000-0  68970-4 0  9995
2 41853  97.9264 166.5876 0011581 100.7524 259.5001 14.96397171 73857
PROMETHEUS 2-1          
1 41854U 16067G   18079.92257607  .00001155  00000-0  10693-3 0  9999
2 41854  97.9275 166.7249 0012089  99.6474 260.6113 14.96473767 73875
PROMETHEUS 2-3          
1 41855U 16067H   18079.85819090  .00001108  00000-0  10282-3 0  9994
2 41855  97.9277 166.6621 0012264 100.0153 260.2452 14.96471804 73868
ITF-2                   
1 41932U 98067KU  18079.96991628  .00030211  00000-0  24024-3 0  9996
2 41932  51.6368  73.6253 0002361 208.1611 151.9259 15.70949915 66876
WASEDA-SAT3             
1 41933U 98067KV  18080.16060338  .00044926  00000-0  30478-3 0  9994
2 41933  51.6341  68.7960 0001660 202.0814 158.0114 15.74500418 66959
AOBA-VELOX 3            
1 41935U 98067KX  18079.96583715  .00037507  00000-0  27049-3 0  9998
2 41935  51.6354  71.3109 0001564 203.0843 157.0085 15.73158496 67003
INS-1B                  
1 41954U 17008G   18080.20751200  .00001894  00000-0  84146-4 0  9992
2 41954  97.4561 144.8805 0008094 308.0128  52.0377 15.22746173 60615
BGUSAT                  
1 41999U 17008BD  18079.93937598  .00003064  00000-0  12877-3 0  9997
2 41999  97.4595 145.4189 0007393 330.9320  29.1505 15.24177339 59982
DIDO-2                  
1 42000U 17008BE  18080.16188608  .00001362  00000-0  60925-4 0  9995
2 42000  97.4579 145.2166 0007756 330.7738  29.3063 15.23001893 60001
PEASSS                  
1 42015U 17008BV  18079.92337973  .00001803  00000-0  77908-4 0  9993
2 42015  97.4575 145.3347 0005888 343.8307  16.2742 15.23769392 60471
AL-FARABI 1             
1 42016U 17008BW  18080.20081922  .00002086  00000-0  88776-4 0  9996
2 42016  97.4575 145.7484 0005688 343.5852  16.5200 15.24123746 60647
NAYIF-1 (EO-88)         
1 42017U 17008BX  18080.13074880  .00002250  00000-0  95454-4 0  9998
2 42017  97.4574 145.6843 0005689 344.2236  15.8823 15.24145912 60653
HAVELSAT                
1 42700U 98067LH  18080.18328945  .00025075  00000-0  23951-3 0  9992
2 42700  51.6365  83.2940 0003169 297.7244  62.3430 15.66572827 48202
SGSAT                   
1 42703U 98067LL  18080.18582774  .00167628  00000-0  71149-3 0  9990
2 42703  51.6323  71.1475 0002805  89.7575 270.3749 15.84288034 48275
CXBN-2                  
1 42704U 98067LM  18080.18249344  .00027477  00000-0  26573-3 0  9992
2 42704  51.6371  84.0487 0000822 143.7257 216.3794 15.66209489 48110
ICECUBE                 
1 42705U 98067LN  18080.18865192  .00040014  00000-0  32004-3 0  9996
2 42705  51.6411  80.3907 0000913 157.6430 202.4607 15.70669506 48226
PHOENIX                 
1 42706U 98067LP  18080.18671388  .00021720  00000-0  21699-3 0  9990
2 42706  51.6364  84.0709 0000448  86.7006 273.4040 15.65543852 48104
X-CUBESAT               
1 42707U 98067LQ  18080.18643863  .00026678  00000-0  25193-3 0  9998
2 42707  51.6339  83.2779 0000637  78.2396 281.8672 15.66821597 48103
QBEE50-LTU-OC           
1 42708U 98067LR  18080.22186377  .00025132  00000-0  24255-3 0  9998
2 42708  51.6365  83.5393 0000517  82.0051 278.1004 15.66315538 48062
ALTAIR PATHFINDER       
1 42711U 98067LS  18080.22850790  .00013886  00000-0  16155-3 0  9992
2 42711  51.6364  88.0979 0002839 199.0723 161.0165 15.62015015 47711
SHARC                   
1 42712U 98067LT  18080.06083614  .00011830  00000-0  14462-3 0  9994
2 42712  51.6382  90.0162 0001276 198.2974 161.7974 15.60888055 47919
ZA-AEROSAT              
1 42713U 98067LU  18080.21033007  .00020102  00000-0  21023-3 0  9996
2 42713  51.6355  85.7206 0001205 160.0598 200.0445 15.64440796 47742
LINK                    
1 42714U 98067LV  18080.21390752  .00044327  00000-0  35142-3 0  9992
2 42714  51.6321  80.4270 0001273 116.9116 243.2011 15.70833632 47920
CSUNSAT 1               
1 42715U 98067LW  18080.06314940  .00022387  00000-0  23049-3 0  9996
2 42715  51.6368  86.2484 0002729 182.8529 177.2451 15.64760807 47728
SPACECUBE               
1 42717U 98067LY  18080.18157066  .00026249  00000-0  25374-3 0  9999
2 42717  51.6352  84.0180 0001991 309.2253  50.8566 15.66247551 47137
HOOPOE                  
1 42718U 98067LZ  18080.19993007  .00030024  00000-0  27297-3 0  9996
2 42718  51.6359  82.6441 0001765 314.5605  45.5247 15.67694328 47156
CHALLENGER              
1 42721U 98067MA  18080.16874814  .00064062  00000-0  44998-3 0  9997
2 42721  51.6340  78.6239 0001990 287.6383  72.4398 15.73541520 46903
NJUST-1                 
1 42722U 98067MB  18080.09594726  .00020465  00000-0  22004-3 0  9994
2 42722  51.6365  87.2154 0004467 266.3555  93.6929 15.63713895 46786
UNSW-ECO                
1 42723U 98067MC  18080.22758331  .00031515  00000-0  28295-3 0  9990
2 42723  51.6375  82.8461 0003195 272.2209  87.8422 15.67974456 46834
LILACSAT-1              
1 42725U 98067ME  18080.18704754  .00027140  00000-0  27273-3 0  9991
2 42725  51.6365  85.5731 0003266 273.2459  86.8162 15.65250372 46711
NSIGHT-1                
1 42726U 98067MF  18080.21530442  .00008399  00000-0  10790-3 0  9998
2 42726  51.6384  90.2931 0004606 269.0960  90.9505 15.60035788 46665
SNUSAT-1                
1 42727U 98067MG  18080.00161446  .00023864  00000-0  24139-3 0  9996
2 42727  51.6348  86.5490 0004776 219.1048 140.9602 15.65159029 46658
I-INSPIRE II            
1 42731U 98067ML  18080.18609103  .00035863  00000-0  31396-3 0  9992
2 42731  51.6352  82.5220 0003711 196.8187 163.2687 15.68525732 46616
POLYITAN-2-SAU          
1 42732U 98067MM  18080.24547535  .00026565  00000-0  25217-3 0  9994
2 42732  51.6357  83.6856 0004154 198.3359 161.7488 15.66688389 46606
SNUSAT-1B               
1 42733U 98067MN  18080.19886099  .00023031  00000-0  22831-3 0  9994
2 42733  51.6360  84.8837 0004344 204.0961 155.9832 15.65693043 46585
EXALTA-1                
1 42734U 98067MP  18080.19008201  .00035149  00000-0  30691-3 0  9992
2 42734  51.6338  82.5411 0004261 235.8651 124.1942 15.68597096 46562
BEEAGLESAT              
1 42736U 98067MR  18080.19982217  .00021823  00000-0  22349-3 0  9997
2 42736  51.6354  85.6387 0004531 262.0027  98.0454 15.64907288 46636
ATLANTIS                
1 42737U 98067MS  18080.17697556  .00761117  29519-3  11462-2 0  9994
2 42737  51.6235  65.6514 0003270 110.6037 249.5267 16.04054621 46783
UCLSAT                  
1 42765U 17036A   18080.16090359  .00001848  00000-0  84831-4 0  9990
2 42765  97.4117 141.3914 0012669  32.5154 327.6860 15.21605549 41322
LITUANICASAT-2          
1 42768U 17036D   18079.92314452  .00003034  00000-0  13960-3 0  9991
2 42768  97.4125 140.8138 0016251  21.8510 338.3416 15.20982065 41140
AALTO-1                 
1 42775U 17036L   18079.72587825  .00001252  00000-0  60183-4 0  9993
2 42775  97.4114 140.5994 0014755  20.7960 339.3873 15.20579686 41056
URSA MAIOR              
1 42776U 17036M   18079.71664983  .00001305  00000-0  62479-4 0  9993
2 42776  97.4119 140.6244 0014597  21.1599 339.0237 15.20647358 41051
COMPASS 2               
1 42777U 17036N   18080.15182796  .00002415  00000-0  11048-3 0  9999
2 42777  97.4131 141.3058 0013515  23.9903 336.1960 15.21415437 41126
DIAMOND RED             
1 42783U 17036U   18079.74352800  .00000671  00000-0  33108-4 0  9998
2 42783  97.4120 140.8852 0013249  33.5349 326.6722 15.21250923 41062
PEGASUS                 
1 42784U 17036V   18079.72729355  .00001726  00000-0  79813-4 0  9995
2 42784  97.4120 140.9113 0013226  33.6244 326.5829 15.21427397 41062
DIAMOND GREEN           
1 42785U 17036W   18079.74261102  .00001055  00000-0  50262-4 0  9991
2 42785  97.4121 140.8946 0013200  34.0976 326.1105 15.21257229 41132
DIAMOND BLUE            
1 42786U 17036X   18079.74175156  .00001509  00000-0  70515-4 0  9992
2 42786  97.4122 140.8941 0013047  34.4810 325.7269 15.21256648 41139
NUDTSAT                 
1 42787U 17036Y   18079.87328944  .00002311  00000-0  10441-3 0  9995
2 42787  97.4121 141.1794 0012725  33.5845 326.6195 15.21900249 40937
SUCHAI                  
1 42788U 17036Z   18079.69900007  .00002094  00000-0  95567-4 0  9993
2 42788  97.4115 140.9473 0012827  34.1863 326.0196 15.21656446 41137
SKCUBE                  
1 42789U 17036AA  18079.76252412  .00001940  00000-0  88819-4 0  9993
2 42789  97.4114 141.0108 0012651  33.9955 326.2089 15.21637521 41066
VZLUSAT-1               
1 42790U 17036AB  18079.92977704  .00002434  00000-0  10970-3 0  9992
2 42790  97.4117 141.2432 0012294  34.0123 326.1899 15.21928814 41094
ROBUSTA-1B              
1 42792U 17036AD  18079.73927546  .00001917  00000-0  87432-4 0  9995
2 42792  97.4112 141.0332 0012262  35.4413 324.7636 15.21776019 41079
CICERO 6                
1 42793U 17036AE  18080.18701664  .00001236  00000-0  57593-4 0  9997
2 42793  97.4112 141.4937 0011427  35.2035 324.9953 15.21700615 41214
D-SAT                   
1 42794U 17036AF  18079.85068795  .00000478  00000-0  47408-4 0  9992
2 42794  97.6032 137.7955 0126392 215.6046 143.6693 14.90803169 40567
TOKI                    
1 42820U 98067MU  18080.22102346  .00021207  00000-0  22499-3 0  9994
2 42820  51.6357  87.2846 0001979 160.5941 199.5129 15.64035519 40078
MAZAALAI (NUMSAT-1)     
1 42822U 98067MW  18079.92168523  .00021137  00000-0  22615-3 0  9992
2 42822  51.6356  89.0381 0001871 167.2113 192.8930 15.63822188 40025
